*******************************************************************************
 Revised: September 10, 2019           Uranus                               799
 
 PHYSICAL DATA (updated 2018-Aug-15):
  Mass x10^24 (kg)      = 86.813          Density (g/cm^3)       =  1.271
  Equat. radius (1 bar) = 25559+-4 km     Polar radius (km)      = 24973+-20
  Vol. Mean Radius (km) = 25362+-12       Flattening             =  0.02293
  Geometric Albedo      = 0.51
  Sid. rot. period (III)= 17.24+-0.01 h   Sid. rot. rate (rad/s) = -0.000101237
  Mean solar day, h     =~17.24           Rocky core mass (Mc/M) =  0.0012        
  GM (km^3/s^2)         = 5793951.322     GM 1-sigma (km^3/s^2)  = +-4.3 
  Equ. grav, ge (m/s^2) =  8.87           Pol. grav, gp (m/s^2)  =   9.19+-0.02
  Visual magnitude V(1,0)= -7.11
  Vis. mag. (opposition)=  +5.52          Obliquity to orbit     = 97.77 deg
  Sidereal orbit period = 84.0120465 y    Sidereal orbit period  = 30685.4 d
  Mean daily motion     = 0.01176904 dg/d Mean orbit velocity    =  6.8 km/s
  Atmos. temp. (1 bar)  =  76+-2 K        Escape speed, km/s     =  21.3           
  Aroche(ice)/Rp        =  2.20           Hill's sphere rad., Rp = 2700
                                 Perihelion   Aphelion    Mean
  Solar Constant (W/m^2)         4.09         3.39        3.71
  Maximum Planetary IR (W/m^2)   0.72         0.55        0.63
  Minimum Planetary IR (W/m^2)   0.72         0.55        0.63
*******************************************************************************
 
 
*******************************************************************************
Ephemeris / WWW_USER Mon Oct 12 01:52:29 2020 Pasadena, USA      / Horizons
*******************************************************************************
Target body name: Uranus (799)                    {source: ura111}
Center body name: Solar System Barycenter (0)     {source: DE431mx}
Center-site name: BODY CENTER
*******************************************************************************
Start time      : A.D. 2020-Oct-12 00:00:00.0000 TDB
Stop  time      : A.D. 2020-Nov-11 00:00:00.0000 TDB
Step-size       : 1440 minutes
*******************************************************************************
Center geodetic : 0.00000000,0.00000000,0.0000000 {E-lon(deg),Lat(deg),Alt(km)}
Center cylindric: 0.00000000,0.00000000,0.0000000 {E-lon(deg),Dxy(km),Dz(km)}
Center radii    : (undefined)                                                  
Output units    : AU-D
Output type     : GEOMETRIC cartesian states
Output format   : 3 (position, velocity, LT, range, range-rate)
Reference frame : Ecliptic of J2000.0
*******************************************************************************
JDTDB
   X     Y     Z
   VX    VY    VZ
   LT    RG    RR
*******************************************************************************
$$SOE
2459157.500000000 = A.D. 2020-Nov-04 00:00:00.0000 TDB 
 X = 1.548792606210572E+01 Y = 1.230039274955718E+01 Z =-1.549641953422642E-01
 VX=-2.475033358718084E-03 VY= 2.896700906254096E-03 VZ= 4.283027202774977E-05
 LT= 1.142326175640206E-01 RG= 1.977876460753933E+01 RR=-1.369757944212360E-04
2459158.500000000 = A.D. 2020-Nov-05 00:00:00.0000 TDB 
 X = 1.548545070788756E+01 Y = 1.230328922356593E+01 Z =-1.549213380674074E-01
 VX=-2.475654916301583E-03 VY= 2.896246691218131E-03 VZ= 4.291231444049037E-05
 LT= 1.142318263075554E-01 RG= 1.977862760572931E+01 RR=-1.370125146429695E-04
2459159.500000000 = A.D. 2020-Nov-06 00:00:00.0000 TDB 
 X = 1.548297481030097E+01 Y = 1.230618522690742E+01 Z =-1.548783964297581E-01
 VX=-2.476148818977629E-03 VY= 2.895756331458223E-03 VZ= 4.293439321579438E-05
 LT= 1.142310351333970E-01 RG= 1.977849061817027E+01 RR=-1.369713021152602E-04
2459160.500000000 = A.D. 2020-Nov-07 00:00:00.0000 TDB 
 X = 1.548049836107399E+01 Y = 1.230908074766114E+01 Z =-1.548354667022825E-01
 VX=-2.476748678525461E-03 VY= 2.895288956779401E-03 VZ= 4.295352558593035E-05
 LT= 1.142302439656473E-01 RG= 1.977835363172086E+01 RR=-1.369987149350616E-04
2459161.500000000 = A.D. 2020-Nov-08 00:00:00.0000 TDB 
 X = 1.547802137238640E+01 Y = 1.231197579372198E+01 Z =-1.547924715609886E-01
 VX=-2.477193236965437E-03 VY= 2.894791362990829E-03 VZ= 4.300487383843459E-05
 LT= 1.142294528842177E-01 RG= 1.977821666021732E+01 RR=-1.369236445074101E-04
2459162.500000000 = A.D. 2020-Nov-09 00:00:00.0000 TDB 
 X = 1.547554394454371E+01 Y = 1.231487032178585E+01 Z =-1.547495654285052E-01
 VX=-2.477728419123823E-03 VY= 2.894276402399543E-03 VZ= 4.278946965433384E-05
 LT= 1.142286621936215E-01 RG= 1.977807975638449E+01 RR=-1.369282633618668E-04
2459163.500000000 = A.D. 2020-Nov-10 00:00:00.0000 TDB 
 X = 1.547306584286009E+01 Y = 1.231776437321180E+01 Z =-1.547068183938390E-01
 VX=-2.478461281220077E-03 VY= 2.893828976602750E-03 VZ= 4.274635899966271E-05
 LT= 1.142278709850301E-01 RG= 1.977794276286356E+01 RR=-1.370468257912301E-04
2459164.500000000 = A.D. 2020-Nov-11 00:00:00.0000 TDB 
 X = 1.547058707267825E+01 Y = 1.232065797044809E+01 Z =-1.546640583510127E-01
 VX=-2.479069758088008E-03 VY= 2.893360869434888E-03 VZ= 4.275193697677953E-05
 LT= 1.142270793558112E-01 RG= 1.977780569651323E+01 RR=-1.370812881891913E-04
